[{"OBJECT_NAME":"DUCHIFAT-1","OBJECT_ID":"2014-033M","EPOCH":"2026-03-09T16:47:47.078880","MEAN_MOTION":15.49813944,"ECCENTRICITY":0.00061121,"INCLINATION":98.0631,"RA_OF_ASC_NODE":115.1281,"ARG_OF_PERICENTER":85.0468,"MEAN_ANOMALY":275.1479,"EPHEMERIS_TYPE":0,"CLASSIFICATION_TYPE":"U","NORAD_CAT_ID":40021,"ELEMENT_SET_NO":999,"REV_AT_EPOCH":64027,"BSTAR":0.0010480156,"MEAN_MOTION_DOT":0.0005864,"MEAN_MOTION_DDOT":0},{"OBJECT_NAME":"STARLINK-1598","OBJECT_ID":"2020-057AV","EPOCH":"2026-03-09T20:27:31.815648","MEAN_MOTION":15.51269749,"ECCENTRICITY":0.00039579,"INCLINATION":53.0523,"RA_OF_ASC_NODE":282.8252,"ARG_OF_PERICENTER":206.2678,"MEAN_ANOMALY":153.813,"EPHEMERIS_TYPE":0,"CLASSIFICATION_TYPE":"U","NORAD_CAT_ID":46160,"ELEMENT_SET_NO":999,"REV_AT_EPOCH":30780,"BSTAR":0.0019256544,"MEAN_MOTION_DOT":0.00116093,"MEAN_MOTION_DDOT":0}]
