DUCHIFAT-1              
1 40021U 14033M   26068.69985044  .00058640  00000+0  10480-2 0  9992
2 40021  98.0631 115.1281 0006112  85.0468 275.1479 15.49813944640278
STARLINK-1598           
1 46160U 20057AV  26068.85245156  .00116093  00000+0  19257-2 0  9994
2 46160  53.0523 282.8252 0003958 206.2678 153.8130 15.51269749307800
